[{"OBJECT_NAME":"STARLINK-3356","OBJECT_ID":"2022-005AF","EPOCH":"2026-03-09T20:43:46.373952","MEAN_MOTION":15.08834312,"ECCENTRICITY":0.00013171,"INCLINATION":53.2176,"RA_OF_ASC_NODE":298.3385,"ARG_OF_PERICENTER":89.6559,"MEAN_ANOMALY":270.4584,"EPHEMERIS_TYPE":0,"CLASSIFICATION_TYPE":"U","NORAD_CAT_ID":51133,"ELEMENT_SET_NO":999,"REV_AT_EPOCH":22875,"BSTAR":-8.75826e-6,"MEAN_MOTION_DOT":-4.27e-6,"MEAN_MOTION_DDOT":0},{"OBJECT_NAME":"STARLING 3","OBJECT_ID":"2023-100D","EPOCH":"2026-03-09T22:41:57.048288","MEAN_MOTION":15.11145977,"ECCENTRICITY":0.00066311,"INCLINATION":99.5096,"RA_OF_ASC_NODE":65.6477,"ARG_OF_PERICENTER":76.1122,"MEAN_ANOMALY":284.0839,"EPHEMERIS_TYPE":0,"CLASSIFICATION_TYPE":"U","NORAD_CAT_ID":57389,"ELEMENT_SET_NO":999,"REV_AT_EPOCH":14507,"BSTAR":0.00051487914,"MEAN_MOTION_DOT":8.551e-5,"MEAN_MOTION_DDOT":0}]
